start=new Date('2023-06-29T00:00:00.000Z').valueOf();
sats=[{"NORAD_CAT_ID":"55652","TIME_SYSTEM":"UTC","EPHEMERIS_TYPE":"0","MEAN_MOTION":"14.99333195","BSTAR":"-0.00336120000000","PERIAPSIS":"566.771","RCS_SIZE":"LARGE","FILE":"3945004","CENTER_NAME":"EARTH","APOAPSIS":"571.144","ARG_OF_PERICENTER":"273.5160","TLE_LINE1":"1 55652U 23021AA  23179.58334491 -.00041017  00000-0 -33612-2 0  9992","LAUNCH_DATE":"2023-02-17","ELEMENT_SET_NO":"999","REV_AT_EPOCH":"2093","TLE_LINE2":"2 55652  69.9989 148.2079 0003147 273.5160  71.0397 14.99333195 20933","ECCENTRICITY":"0.00031470","GP_ID":"234607113","SITE":"AFWTR","OBJECT_ID":"2023-021AA","MEAN_MOTION_DDOT":"0.0000000000000","MEAN_ANOMALY":"71.0397","DECAY_DATE":null,"MEAN_ELEMENT_THEORY":"SGP4","RA_OF_ASC_NODE":"148.2079","REF_FRAME":"TEME","COUNTRY_CODE":"US","EPOCH":"2023-06-28T14:00:01.000224","OBJECT_NAME":"STARLINK-5487","MEAN_MOTION_DOT":"-0.00041017","INCLINATION":"69.9989","CLASSIFICATION_TYPE":"U","OBJECT_TYPE":"PAYLOAD","SEMIMAJOR_AXIS":"6947.092","PERIOD":"96.043"},{"EPOCH":"2023-06-28T06:00:00.999648","COUNTRY_CODE":"US","MEAN_MOTION_DOT":"-0.00015846","OBJECT_NAME":"STARLINK-5067","INCLINATION":"69.9996","CLASSIFICATION_TYPE":"U","OBJECT_TYPE":"PAYLOAD","PERIOD":"96.107","SEMIMAJOR_AXIS":"6950.173","MEAN_MOTION_DDOT":"0.0000000000000","OBJECT_ID":"2023-021AB","MEAN_ANOMALY":"176.3302","GP_ID":"234601601","SITE":"AFWTR","DECAY_DATE":null,"REF_FRAME":"TEME","MEAN_ELEMENT_THEORY":"SGP4","RA_OF_ASC_NODE":"148.9313","APOAPSIS":"574.189","TLE_LINE1":"1 55653U 23021AB  23179.25001157 -.00015846  00000-0 -13230-2 0  9992","ARG_OF_PERICENTER":"273.9482","CENTER_NAME":"EARTH","REV_AT_EPOCH":"2088","ELEMENT_SET_NO":"999","LAUNCH_DATE":"2023-02-17","TLE_LINE2":"2 55653  69.9996 148.9313 0003095 273.9482 176.3302 14.98336351 20888","ECCENTRICITY":"0.00030950","EPHEMERIS_TYPE":"0","TIME_SYSTEM":"UTC","NORAD_CAT_ID":"55653","BSTAR":"-0.00132300000000","MEAN_MOTION":"14.98336351","PERIAPSIS":"569.887","FILE":"3944782","RCS_SIZE":"LARGE"},{"OBJECT_TYPE":"PAYLOAD","PERIOD":"96.045","SEMIMAJOR_AXIS":"6947.201","CLASSIFICATION_TYPE":"U","MEAN_MOTION_DOT":"-0.00000124","INCLINATION":"69.9982","OBJECT_NAME":"STARLINK-5070","COUNTRY_CODE":"US","EPOCH":"2023-06-28T03:53:25.938528","MEAN_ELEMENT_THEORY":"SGP4","RA_OF_ASC_NODE":"149.5308","REF_FRAME":"TEME","DECAY_DATE":null,"GP_ID":"234601280","SITE":"AFWTR","OBJECT_ID":"2023-021AC","MEAN_MOTION_DDOT":"0.0000000000000","MEAN_ANOMALY":"86.7727","TLE_LINE2":"2 55654  69.9982 149.5308 0002977 273.3092  86.7727 14.99298171 20865","ECCENTRICITY":"0.00029770","LAUNCH_DATE":"2023-02-17","ELEMENT_SET_NO":"999","REV_AT_EPOCH":"2086","CENTER_NAME":"EARTH","APOAPSIS":"571.134","ARG_OF_PERICENTER":"273.3092","TLE_LINE1":"1 55654U 23021AC  23179.16210577 -.00000124  00000-0 -24460-5 0  9994","RCS_SIZE":"LARGE","FILE":"3944782","PERIAPSIS":"566.997","MEAN_MOTION":"14.99298171","BSTAR":"-0.00000244600000","NORAD_CAT_ID":"55654","TIME_SYSTEM":"UTC","EPHEMERIS_TYPE":"0"},{"SITE":"AFWTR","GP_ID":"234606608","MEAN_ANOMALY":"90.7303","MEAN_MOTION_DDOT":"0.0000000000000","OBJECT_ID":"2023-021AD","DECAY_DATE":null,"RA_OF_ASC_NODE":"142.8194","MEAN_ELEMENT_THEORY":"SGP4","REF_FRAME":"TEME","COUNTRY_CODE":"US","EPOCH":"2023-06-28T08:14:24.734976","MEAN_MOTION_DOT":"0.00001537","OBJECT_NAME":"STARLINK-5267","INCLINATION":"69.9991","CLASSIFICATION_TYPE":"U","SEMIMAJOR_AXIS":"6737.253","PERIOD":"91.724","OBJECT_TYPE":"PAYLOAD","NORAD_CAT_ID":"55655","TIME_SYSTEM":"UTC","EPHEMERIS_TYPE":"0","MEAN_MOTION":"15.69923278","BSTAR":"0.00001454700000","PERIAPSIS":"356.994","RCS_SIZE":"LARGE","FILE":"3945004","CENTER_NAME":"EARTH","ARG_OF_PERICENTER":"269.3531","TLE_LINE1":"1 55655U 23021AD  23179.34334184  .00001537  00000-0  14547-4 0  9997","APOAPSIS":"361.243","LAUNCH_DATE":"2023-02-17","ELEMENT_SET_NO":"999","REV_AT_EPOCH":"2103","TLE_LINE2":"2 55655  69.9991 142.8194 0003154 269.3531  90.7303 15.69923278 21032","ECCENTRICITY":"0.00031540"},{"COUNTRY_CODE":"US","EPOCH":"2023-06-28T14:00:01.000224","OBJECT_NAME":"STARLINK-5326","MEAN_MOTION_DOT":"-0.00039881","INCLINATION":"69.9995","CLASSIFICATION_TYPE":"U","PERIOD":"96.106","SEMIMAJOR_AXIS":"6950.167","OBJECT_TYPE":"PAYLOAD","SITE":"AFWTR","GP_ID":"234612564","MEAN_ANOMALY":"197.7402","MEAN_MOTION_DDOT":"0.0000000000000","OBJECT_ID":"2023-021AE","DECAY_DATE":null,"RA_OF_ASC_NODE":"148.0656","MEAN_ELEMENT_THEORY":"SGP4","REF_FRAME":"TEME","CENTER_NAME":"EARTH","TLE_LINE1":"1 55656U 23021AE  23179.58334491 -.00039881  00000-0 -33529-2 0  9999","ARG_OF_PERICENTER":"272.4526","APOAPSIS":"574.054","LAUNCH_DATE":"2023-02-17","ELEMENT_SET_NO":"999","REV_AT_EPOCH":"2093","ECCENTRICITY":"0.00029100","TLE_LINE2":"2 55656  69.9995 148.0656 0002910 272.4526 197.7402 14.98338437 20930","NORAD_CAT_ID":"55656","TIME_SYSTEM":"UTC","EPHEMERIS_TYPE":"0","MEAN_MOTION":"14.98338437","BSTAR":"-0.00335290000000","PERIAPSIS":"570.009","RCS_SIZE":"LARGE","FILE":"3945234"},{"MEAN_MOTION_DOT":"0.00000997","OBJECT_NAME":"STARLINK-5328","INCLINATION":"69.9982","EPOCH":"2023-06-27T15:25:26.621472","COUNTRY_CODE":"US","OBJECT_TYPE":"PAYLOAD","SEMIMAJOR_AXIS":"6737.259","PERIOD":"91.724","CLASSIFICATION_TYPE":"U","MEAN_MOTION_DDOT":"0.0000000000000","OBJECT_ID":"2023-021AF","MEAN_ANOMALY":"90.2500","GP_ID":"234594767","SITE":"AFWTR","REF_FRAME":"TEME","MEAN_ELEMENT_THEORY":"SGP4","RA_OF_ASC_NODE":"144.7907","DECAY_DATE":null,"APOAPSIS":"361.358","TLE_LINE1":"1 55657U 23021AF  23178.64266923  .00000997  00000-0  10065-4 0  9996","ARG_OF_PERICENTER":"269.8316","CENTER_NAME":"EARTH","TLE_LINE2":"2 55657  69.9982 144.7907 0003315 269.8316  90.2500 15.69921312 20920","ECCENTRICITY":"0.00033150","REV_AT_EPOCH":"2092","ELEMENT_SET_NO":"999","LAUNCH_DATE":"2023-02-17","BSTAR":"0.00001006500000","MEAN_MOTION":"15.69921312","TIME_SYSTEM":"UTC","EPHEMERIS_TYPE":"0","NORAD_CAT_ID":"55657","RCS_SIZE":"LARGE","FILE":"3944516","PERIAPSIS":"356.891"},{"RCS_SIZE":"LARGE","FILE":"3945019","PERIAPSIS":"570.007","MEAN_MOTION":"14.98338131","BSTAR":"-0.00355290000000","NORAD_CAT_ID":"55658","EPHEMERIS_TYPE":"0","TIME_SYSTEM":"UTC","TLE_LINE2":"2 55658  69.9990 148.1419 0002915 270.3837 132.3494 14.98338131 20939","ECCENTRICITY":"0.00029150","ELEMENT_SET_NO":"999","LAUNCH_DATE":"2023-02-17","REV_AT_EPOCH":"2093","CENTER_NAME":"EARTH","APOAPSIS":"574.059","ARG_OF_PERICENTER":"270.3837","TLE_LINE1":"1 55658U 23021AG  23179.58334491 -.00042240  00000-0 -35529-2 0  9996","MEAN_ELEMENT_THEORY":"SGP4","RA_OF_ASC_NODE":"148.1419","REF_FRAME":"TEME","DECAY_DATE":null,"GP_ID":"234607123","SITE":"AFWTR","OBJECT_ID":"2023-021AG","MEAN_MOTION_DDOT":"0.0000000000000","MEAN_ANOMALY":"132.3494","OBJECT_TYPE":"PAYLOAD","SEMIMAJOR_AXIS":"6950.168","PERIOD":"96.106","CLASSIFICATION_TYPE":"U","INCLINATION":"69.9990","MEAN_MOTION_DOT":"-0.00042240","OBJECT_NAME":"STARLINK-5307","COUNTRY_CODE":"US","EPOCH":"2023-06-28T14:00:01.000224"},{"TLE_LINE2":"2 55659  69.9961 143.7150 0003743 261.3960  98.6811 15.69917620 20985","ECCENTRICITY":"0.00037430","REV_AT_EPOCH":"2098","LAUNCH_DATE":"2023-02-17","ELEMENT_SET_NO":"999","TLE_LINE1":"1 55659U 23021AH  23179.02486265  .00001919  00000-0  17729-4 0  9993","ARG_OF_PERICENTER":"261.3960","APOAPSIS":"361.656","CENTER_NAME":"EARTH","FILE":"3944669","RCS_SIZE":"LARGE","PERIAPSIS":"356.613","BSTAR":"0.00001772900000","MEAN_MOTION":"15.69917620","EPHEMERIS_TYPE":"0","TIME_SYSTEM":"UTC","NORAD_CAT_ID":"55659","SEMIMAJOR_AXIS":"6737.270","PERIOD":"91.725","OBJECT_TYPE":"PAYLOAD","CLASSIFICATION_TYPE":"U","MEAN_MOTION_DOT":"0.00001919","INCLINATION":"69.9961","OBJECT_NAME":"STARLINK-5477","EPOCH":"2023-06-28T00:35:48.132960","COUNTRY_CODE":"US","REF_FRAME":"TEME","RA_OF_ASC_NODE":"143.7150","MEAN_ELEMENT_THEORY":"SGP4","DECAY_DATE":null,"MEAN_ANOMALY":"98.6811","OBJECT_ID":"2023-021AH","MEAN_MOTION_DDOT":"0.0000000000000","SITE":"AFWTR","GP_ID":"234598291"},{"DECAY_DATE":null,"REF_FRAME":"TEME","MEAN_ELEMENT_THEORY":"SGP4","RA_OF_ASC_NODE":"143.0005","OBJECT_ID":"2023-021AJ","MEAN_MOTION_DDOT":"0.0000000000000","MEAN_ANOMALY":"93.6167","GP_ID":"234606797","SITE":"AFWTR","CLASSIFICATION_TYPE":"U","OBJECT_TYPE":"PAYLOAD","SEMIMAJOR_AXIS":"6737.255","PERIOD":"91.724","EPOCH":"2023-06-28T06:43:16.040064","COUNTRY_CODE":"US","INCLINATION":"69.9970","MEAN_MOTION_DOT":"0.00000992","OBJECT_NAME":"STARLINK-5467","PERIAPSIS":"356.590","RCS_SIZE":"LARGE","FILE":"3945015","EPHEMERIS_TYPE":"0","TIME_SYSTEM":"UTC","NORAD_CAT_ID":"55660","BSTAR":"0.00001001700000","MEAN_MOTION":"15.69922889","REV_AT_EPOCH":"2103","LAUNCH_DATE":"2023-02-17","ELEMENT_SET_NO":"999","TLE_LINE2":"2 55660  69.9970 143.0005 0003755 266.4599  93.6167 15.69922889 21035","ECCENTRICITY":"0.00037550","APOAPSIS":"361.649","TLE_LINE1":"1 55660U 23021AJ  23179.28004676  .00000992  00000-0  10017-4 0  9998","ARG_OF_PERICENTER":"266.4599","CENTER_NAME":"EARTH"},{"RA_OF_ASC_NODE":"143.7135","MEAN_ELEMENT_THEORY":"SGP4","REF_FRAME":"TEME","DECAY_DATE":null,"SITE":"AFWTR","GP_ID":"234598285","MEAN_ANOMALY":"98.6889","MEAN_MOTION_DDOT":"0.0000000000000","OBJECT_ID":"2023-021AK","SEMIMAJOR_AXIS":"6737.266","PERIOD":"91.724","OBJECT_TYPE":"PAYLOAD","CLASSIFICATION_TYPE":"U","OBJECT_NAME":"STARLINK-5475","MEAN_MOTION_DOT":"0.00002041","INCLINATION":"69.9967","COUNTRY_CODE":"US","EPOCH":"2023-06-28T00:35:20.907456","RCS_SIZE":"LARGE","FILE":"3944669","PERIAPSIS":"356.691","MEAN_MOTION":"15.69919000","BSTAR":"0.00001874700000","NORAD_CAT_ID":"55661","TIME_SYSTEM":"UTC","EPHEMERIS_TYPE":"0","ECCENTRICITY":"0.00036220","TLE_LINE2":"2 55661  69.9967 143.7135 0003622 261.3896  98.6889 15.69919000 20991","LAUNCH_DATE":"2023-02-17","ELEMENT_SET_NO":"999","REV_AT_EPOCH":"2099","CENTER_NAME":"EARTH","ARG_OF_PERICENTER":"261.3896","TLE_LINE1":"1 55661U 23021AK  23179.02454754  .00002041  00000-0  18747-4 0  9992","APOAPSIS":"361.571"}];
